[{"OBJECT_NAME":"STARLINK-4644","OBJECT_ID":"2022-107V","EPOCH":"2026-03-09T15:38:20.342112","MEAN_MOTION":15.08844283,"ECCENTRICITY":0.00013076,"INCLINATION":53.2163,"RA_OF_ASC_NODE":223.9148,"ARG_OF_PERICENTER":95.4919,"MEAN_ANOMALY":264.6223,"EPHEMERIS_TYPE":0,"CLASSIFICATION_TYPE":"U","NORAD_CAT_ID":53719,"ELEMENT_SET_NO":999,"REV_AT_EPOCH":19483,"BSTAR":-6.404446e-5,"MEAN_MOTION_DOT":-1.307e-5,"MEAN_MOTION_DDOT":0},{"OBJECT_NAME":"NEONSAT-1A","OBJECT_ID":"2026-019A","EPOCH":"2026-03-09T21:53:31.879392","MEAN_MOTION":15.0780294,"ECCENTRICITY":0.00137261,"INCLINATION":97.411,"RA_OF_ASC_NODE":192.4819,"ARG_OF_PERICENTER":167.4713,"MEAN_ANOMALY":192.686,"EPHEMERIS_TYPE":0,"CLASSIFICATION_TYPE":"U","NORAD_CAT_ID":67614,"ELEMENT_SET_NO":999,"REV_AT_EPOCH":585,"BSTAR":0.00027109929,"MEAN_MOTION_DOT":4.096e-5,"MEAN_MOTION_DDOT":0}]
